{
  "type": "FeatureCollection",
  "features": [
    {
      "type": "Feature",
      "properties": {
        "OBJECT_NAME": "CALSPHERE 1",
        "OBJECT_ID": "1964-063C",
        "EPOCH": "2025-11-30T03:15:24.250176",
        "MEAN_MOTION": 13.76341273,
        "ECCENTRICITY": 0.0026862,
        "INCLINATION": 90.2215,
        "RA_OF_ASC_NODE": 67.1644,
        "ARG_OF_PERICENTER": 172.0018,
        "MEAN_ANOMALY": 259.6257,
        "EPHEMERIS_TYPE": 0,
        "CLASSIFICATION_TYPE": "U",
        "NORAD_CAT_ID": 900,
        "ELEMENT_SET_NO": 999,
        "REV_AT_EPOCH": 4404,
        "BSTAR": 0.00082341,
        "MEAN_MOTION_DOT": 8.15e-06,
        "MEAN_MOTION_DDOT": 0,
        "norad_id": 900,
        "name": "CALSPHERE 1",
        "group": "active",
        "longitude_deg": NaN,
        "latitude_deg": NaN,
        "alt_km": NaN,
        "orbit_class": "HEO",
        "timestamp": "2025-11-30T09:33:02.500096+00:00"
      },
      "geometry": {
        "type": "Point",
        "coordinates": [
          NaN,
          NaN
        ]
      }
    },
    {
      "type": "Feature",
      "properties": {
        "OBJECT_NAME": "CALSPHERE 2",
        "OBJECT_ID": "1964-063E",
        "EPOCH": "2025-11-30T02:11:07.082016",
        "MEAN_MOTION": 13.52881273,
        "ECCENTRICITY": 0.0020508,
        "INCLINATION": 90.2363,
        "RA_OF_ASC_NODE": 71.0985,
        "ARG_OF_PERICENTER": 86.2967,
        "MEAN_ANOMALY": 32.9209,
        "EPHEMERIS_TYPE": 0,
        "CLASSIFICATION_TYPE": "U",
        "NORAD_CAT_ID": 902,
        "ELEMENT_SET_NO": 999,
        "REV_AT_EPOCH": 82934,
        "BSTAR": 4.396e-05,
        "MEAN_MOTION_DOT": 3.8e-07,
        "MEAN_MOTION_DDOT": 0,
        "norad_id": 902,
        "name": "CALSPHERE 2",
        "group": "active",
        "longitude_deg": NaN,
        "latitude_deg": NaN,
        "alt_km": NaN,
        "orbit_class": "HEO",
        "timestamp": "2025-11-30T09:33:02.500103+00:00"
      },
      "geometry": {
        "type": "Point",
        "coordinates": [
          NaN,
          NaN
        ]
      }
    },
    {
      "type": "Feature",
      "properties": {
        "OBJECT_NAME": "LCS 1",
        "OBJECT_ID": "1965-034C",
        "EPOCH": "2025-11-30T03:28:02.590752",
        "MEAN_MOTION": 9.89309335,
        "ECCENTRICITY": 0.001341,
        "INCLINATION": 32.1435,
        "RA_OF_ASC_NODE": 289.6286,
        "ARG_OF_PERICENTER": 137.9505,
        "MEAN_ANOMALY": 222.2024,
        "EPHEMERIS_TYPE": 0,
        "CLASSIFICATION_TYPE": "U",
        "NORAD_CAT_ID": 1361,
        "ELEMENT_SET_NO": 999,
        "REV_AT_EPOCH": 19017,
        "BSTAR": -0.00076815,
        "MEAN_MOTION_DOT": 2e-08,
        "MEAN_MOTION_DDOT": 0,
        "norad_id": 1361,
        "name": "LCS 1",
        "group": "active",
        "longitude_deg": NaN,
        "latitude_deg": NaN,
        "alt_km": NaN,
        "orbit_class": "HEO",
        "timestamp": "2025-11-30T09:33:02.500126+00:00"
      },
      "geometry": {
        "type": "Point",
        "coordinates": [
          NaN,
          NaN
        ]
      }
    },
    {
      "type": "Feature",
      "properties": {
        "OBJECT_NAME": "TEMPSAT 1",
        "OBJECT_ID": "1965-065E",
        "EPOCH": "2025-11-30T02:29:12.914016",
        "MEAN_MOTION": 13.33580697,
        "ECCENTRICITY": 0.0071456,
        "INCLINATION": 89.989,
        "RA_OF_ASC_NODE": 212.6802,
        "ARG_OF_PERICENTER": 87.7356,
        "MEAN_ANOMALY": 68.9917,
        "EPHEMERIS_TYPE": 0,
        "CLASSIFICATION_TYPE": "U",
        "NORAD_CAT_ID": 1512,
        "ELEMENT_SET_NO": 999,
        "REV_AT_EPOCH": 93351,
        "BSTAR": 9.9526e-05,
        "MEAN_MOTION_DOT": 5.9e-07,
        "MEAN_MOTION_DDOT": 0,
        "norad_id": 1512,
        "name": "TEMPSAT 1",
        "group": "active",
        "longitude_deg": NaN,
        "latitude_deg": NaN,
        "alt_km": NaN,
        "orbit_class": "HEO",
        "timestamp": "2025-11-30T09:33:02.500134+00:00"
      },
      "geometry": {
        "type": "Point",
        "coordinates": [
          NaN,
          NaN
        ]
      }
    },
    {
      "type": "Feature",
      "properties": {
        "OBJECT_NAME": "CALSPHERE 4A",
        "OBJECT_ID": "1965-065H",
        "EPOCH": "2025-11-30T02:49:09.825312",
        "MEAN_MOTION": 13.36235723,
        "ECCENTRICITY": 0.0068342,
        "INCLINATION": 89.9088,
        "RA_OF_ASC_NODE": 124.351,
        "ARG_OF_PERICENTER": 306.0999,
        "MEAN_ANOMALY": 106.3077,
        "EPHEMERIS_TYPE": 0,
        "CLASSIFICATION_TYPE": "U",
        "NORAD_CAT_ID": 1520,
        "ELEMENT_SET_NO": 999,
        "REV_AT_EPOCH": 93612,
        "BSTAR": 0.00024414,
        "MEAN_MOTION_DOT": 1.36e-06,
        "MEAN_MOTION_DDOT": 0,
        "norad_id": 1520,
        "name": "CALSPHERE 4A",
        "group": "active",
        "longitude_deg": NaN,
        "latitude_deg": NaN,
        "alt_km": NaN,
        "orbit_class": "HEO",
        "timestamp": "2025-11-30T09:33:02.500140+00:00"
      },
      "geometry": {
        "type": "Point",
        "coordinates": [
          NaN,
          NaN
        ]
      }
    },
    {
      "type": "Feature",
      "properties": {
        "OBJECT_NAME": "OPS 5712 (P/L 160)",
        "OBJECT_ID": "1967-053A",
        "EPOCH": "2025-11-30T02:00:15.418656",
        "MEAN_MOTION": 14.73870759,
        "ECCENTRICITY": 0.000485,
        "INCLINATION": 69.9172,
        "RA_OF_ASC_NODE": 165.0039,
        "ARG_OF_PERICENTER": 291.7926,
        "MEAN_ANOMALY": 68.2704,
        "EPHEMERIS_TYPE": 0,
        "CLASSIFICATION_TYPE": "U",
        "NORAD_CAT_ID": 2826,
        "ELEMENT_SET_NO": 999,
        "REV_AT_EPOCH": 3685,
        "BSTAR": 0.0015185,
        "MEAN_MOTION_DOT": 9.906e-05,
        "MEAN_MOTION_DDOT": 0,
        "norad_id": 2826,
        "name": "OPS 5712 (P/L 160)",
        "group": "active",
        "longitude_deg": NaN,
        "latitude_deg": NaN,
        "alt_km": NaN,
        "orbit_class": "HEO",
        "timestamp": "2025-11-30T09:33:02.500146+00:00"
      },
      "geometry": {
        "type": "Point",
        "coordinates": [
          NaN,
          NaN
        ]
      }
    },
    {
      "type": "Feature",
      "properties": {
        "OBJECT_NAME": "LES-5",
        "OBJECT_ID": "1967-066E",
        "EPOCH": "2025-11-30T01:29:55.328352",
        "MEAN_MOTION": 1.09425911,
        "ECCENTRICITY": 0.0056013,
        "INCLINATION": 2.1647,
        "RA_OF_ASC_NODE": 102.9285,
        "ARG_OF_PERICENTER": 199.3023,
        "MEAN_ANOMALY": 72.6152,
        "EPHEMERIS_TYPE": 0,
        "CLASSIFICATION_TYPE": "U",
        "NORAD_CAT_ID": 2866,
        "ELEMENT_SET_NO": 999,
        "REV_AT_EPOCH": 12885,
        "BSTAR": 0,
        "MEAN_MOTION_DOT": -7.8e-07,
        "MEAN_MOTION_DDOT": 0,
        "norad_id": 2866,
        "name": "LES-5",
        "group": "active",
        "longitude_deg": NaN,
        "latitude_deg": NaN,
        "alt_km": NaN,
        "orbit_class": "HEO",
        "timestamp": "2025-11-30T09:33:02.500153+00:00"
      },
      "geometry": {
        "type": "Point",
        "coordinates": [
          NaN,
          NaN
        ]
      }
    },
    {
      "type": "Feature",
      "properties": {
        "OBJECT_NAME": "SURCAL 159",
        "OBJECT_ID": "1967-053F",
        "EPOCH": "2025-11-29T23:23:17.270016",
        "MEAN_MOTION": 13.99537231,
        "ECCENTRICITY": 0.0006714,
        "INCLINATION": 69.9751,
        "RA_OF_ASC_NODE": 69.7826,
        "ARG_OF_PERICENTER": 348.3499,
        "MEAN_ANOMALY": 11.7452,
        "EPHEMERIS_TYPE": 0,
        "CLASSIFICATION_TYPE": "U",
        "NORAD_CAT_ID": 2872,
        "ELEMENT_SET_NO": 999,
        "REV_AT_EPOCH": 98233,
        "BSTAR": 0.00012165,
        "MEAN_MOTION_DOT": 1.24e-06,
        "MEAN_MOTION_DDOT": 0,
        "norad_id": 2872,
        "name": "SURCAL 159",
        "group": "active",
        "longitude_deg": NaN,
        "latitude_deg": NaN,
        "alt_km": NaN,
        "orbit_class": "HEO",
        "timestamp": "2025-11-30T09:33:02.500159+00:00"
      },
      "geometry": {
        "type": "Point",
        "coordinates": [
          NaN,
          NaN
        ]
      }
    },
    {
      "type": "Feature",
      "properties": {
        "OBJECT_NAME": "OPS 5712 (P/L 153)",
        "OBJECT_ID": "1967-053H",
        "EPOCH": "2025-11-29T21:41:37.138848",
        "MEAN_MOTION": 13.96787868,
        "ECCENTRICITY": 0.0004438,
        "INCLINATION": 69.9718,
        "RA_OF_ASC_NODE": 182.4422,
        "ARG_OF_PERICENTER": 98.1208,
        "MEAN_ANOMALY": 262.0401,
        "EPHEMERIS_TYPE": 0,
        "CLASSIFICATION_TYPE": "U",
        "NORAD_CAT_ID": 2874,
        "ELEMENT_SET_NO": 999,
        "REV_AT_EPOCH": 97895,
        "BSTAR": 7.6678e-05,
        "MEAN_MOTION_DOT": 5.3e-07,
        "MEAN_MOTION_DDOT": 0,
        "norad_id": 2874,
        "name": "OPS 5712 (P/L 153)",
        "group": "active",
        "longitude_deg": NaN,
        "latitude_deg": NaN,
        "alt_km": NaN,
        "orbit_class": "HEO",
        "timestamp": "2025-11-30T09:33:02.500165+00:00"
      },
      "geometry": {
        "type": "Point",
        "coordinates": [
          NaN,
          NaN
        ]
      }
    }
  ]
}